{"type": "FeatureCollection", "features": [ {"type": "Feature", "properties": {"norad_id": 30649, "name": "FENGYUN 1C DEB", "group": "fengyun-1c-debris", "lat": 54.95438192747576, "lon": -78.55172072736154, "alt_km": 755.6198388981202, "timestamp": "2025-12-19T06:59:44.186352+00:00", "meta": {"OBJECT_NAME": "FENGYUN 1C DEB", "OBJECT_ID": "1999-025APG", "EPOCH": "2025-12-18T17:41:51.056736", "MEAN_MOTION": 14.29581549, "ECCENTRICITY": 0.00512084, "INCLINATION": 98.8097, "RA_OF_ASC_NODE": 88.1142, "ARG_OF_PERICENTER": 154.3702, "MEAN_ANOMALY": 359.9141, "EPHEMERIS_TYPE": 0, "CLASSIFICATION_TYPE": "U", "NORAD_CAT_ID": 30649, "ELEMENT_SET_NO": 999, "REV_AT_EPOCH": 97149, "BSTAR": 0.001337745, "MEAN_MOTION_DOT": 3.428e-05, "MEAN_MOTION_DDOT": 0}, "tle": {"line1": "1 30649U 99025APG 25352.73739649  .00003428  00000+0  13377-2 0  9991", "line2": "2 30649  98.8097  88.1142 0051208 154.3702 359.9141 14.29581549971497"}}, "geometry": {"type": "Point", "coordinates": [-78.55172072736154, 54.95438192747576]}}, {"type": "Feature", "properties": {"norad_id": 30650, "name": "FENGYUN 1C DEB", "group": "fengyun-1c-debris", "lat": 64.24693918173062, "lon": -126.28652417266501, "alt_km": 811.0894044661954, "timestamp": "2025-12-19T06:59:44.186362+00:00", "meta": {"OBJECT_NAME": "FENGYUN 1C DEB", "OBJECT_ID": "1999-025APH", "EPOCH": "2025-12-18T01:50:35.303136", "MEAN_MOTION": 14.13964352, "ECCENTRICITY": 0.00723125, "INCLINATION": 99.2043, "RA_OF_ASC_NODE": 32.8229, "ARG_OF_PERICENTER": 174.9279, "MEAN_ANOMALY": 240.1976, "EPHEMERIS_TYPE": 0, "CLASSIFICATION_TYPE": "U", "NORAD_CAT_ID": 30650, "ELEMENT_SET_NO": 999, "REV_AT_EPOCH": 96374, "BSTAR": 0.001231945, "MEAN_MOTION_DOT": 2.352e-05, "MEAN_MOTION_DDOT": 0}, "tle": {"line1": "1 30650U 99025APH 25352.07679749  .00002352  00000+0  12319-2 0  9994", "line2": "2 30650  99.2043  32.8229 0072312 174.9279 240.1976 14.13964352963749"}}, "geometry": {"type": "Point", "coordinates": [-126.28652417266501, 64.24693918173062]}}, {"type": "Feature", "properties": {"norad_id": 30652, "name": "FENGYUN 1C DEB", "group": "fengyun-1c-debris", "lat": 31.749234453785146, "lon": 20.755480952253617, "alt_km": 869.5537486180829, "timestamp": "2025-12-19T06:59:44.186372+00:00", "meta": {"OBJECT_NAME": "FENGYUN 1C DEB", "OBJECT_ID": "1999-025APJ", "EPOCH": "2025-12-18T14:23:16.093248", "MEAN_MOTION": 14.07807595, "ECCENTRICITY": 0.00074196, "INCLINATION": 98.7845, "RA_OF_ASC_NODE": 25.5731, "ARG_OF_PERICENTER": 246.3435, "MEAN_ANOMALY": 240.7367, "EPHEMERIS_TYPE": 0, "CLASSIFICATION_TYPE": "U", "NORAD_CAT_ID": 30652, "ELEMENT_SET_NO": 999, "REV_AT_EPOCH": 96776, "BSTAR": 5.4213147e-05, "MEAN_MOTION_DOT": 4.9e-07, "MEAN_MOTION_DDOT": 0}, "tle": {"line1": "1 30652U 99025APJ 25352.59949182  .00000049  00000+0  54213-4 0  9996", "line2": "2 30652  98.7845  25.5731 0007419 246.3435 240.7367 14.07807595967760"}}, "geometry": {"type": "Point", "coordinates": [20.755480952253617, 31.749234453785146]}}, {"type": "Feature", "properties": {"norad_id": 30654, "name": "FENGYUN 1C DEB", "group": "fengyun-1c-debris", "lat": -74.87719238599769, "lon": 59.7355050565612, "alt_km": 868.0862411051812, "timestamp": "2025-12-19T06:59:44.186383+00:00", "meta": {"OBJECT_NAME": "FENGYUN 1C DEB", "OBJECT_ID": "1999-025APL", "EPOCH": "2025-12-18T17:55:20.365536", "MEAN_MOTION": 14.17122972, "ECCENTRICITY": 0.00356455, "INCLINATION": 99.2426, "RA_OF_ASC_NODE": 276.2206, "ARG_OF_PERICENTER": 79.9527, "MEAN_ANOMALY": 280.5665, "EPHEMERIS_TYPE": 0, "CLASSIFICATION_TYPE": "U", "NORAD_CAT_ID": 30654, "ELEMENT_SET_NO": 999, "REV_AT_EPOCH": 96765, "BSTAR": 0.00083430797, "MEAN_MOTION_DOT": 1.644e-05, "MEAN_MOTION_DDOT": 0}, "tle": {"line1": "1 30654U 99025APL 25352.74676349  .00001644  00000+0  83431-3 0  9992", "line2": "2 30654  99.2426 276.2206 0035645  79.9527 280.5665 14.17122972967650"}}, "geometry": {"type": "Point", "coordinates": [59.7355050565612, -74.87719238599769]}}, {"type": "Feature", "properties": {"norad_id": 30656, "name": "FENGYUN 1C DEB", "group": "fengyun-1c-debris", "lat": -7.252386755890722, "lon": 168.95223353611726, "alt_km": 738.403692576222, "timestamp": "2025-12-19T06:59:44.186393+00:00", "meta": {"OBJECT_NAME": "FENGYUN 1C DEB", "OBJECT_ID": "1999-025APN", "EPOCH": "2025-12-18T04:26:51.706752", "MEAN_MOTION": 14.45417524, "ECCENTRICITY": 0.00301395, "INCLINATION": 99.0175, "RA_OF_ASC_NODE": 166.62, "ARG_OF_PERICENTER": 69.9036, "MEAN_ANOMALY": 290.5393, "EPHEMERIS_TYPE": 0, "CLASSIFICATION_TYPE": "U", "NORAD_CAT_ID": 30656, "ELEMENT_SET_NO": 999, "REV_AT_EPOCH": 97164, "BSTAR": 0.002079445, "MEAN_MOTION_DOT": 7.317e-05, "MEAN_MOTION_DDOT": 0}, "tle": {"line1": "1 30656U 99025APN 25352.18532068  .00007317  00000+0  20794-2 0  9996", "line2": "2 30656  99.0175 166.6200 0030139  69.9036 290.5393 14.45417524971648"}}, "geometry": {"type": "Point", "coordinates": [168.95223353611726, -7.252386755890722]}}, {"type": "Feature", "properties": {"norad_id": 30657, "name": "FENGYUN 1C DEB", "group": "fengyun-1c-debris", "lat": -48.625817665100826, "lon": 101.68215030651109, "alt_km": 758.3048347612921, "timestamp": "2025-12-19T06:59:44.186403+00:00", "meta": {"OBJECT_NAME": "FENGYUN 1C DEB", "OBJECT_ID": "1999-025APP", "EPOCH": "2025-12-18T18:28:46.006752", "MEAN_MOTION": 14.38670231, "ECCENTRICITY": 0.00163331, "INCLINATION": 98.8348, "RA_OF_ASC_NODE": 90.9752, "ARG_OF_PERICENTER": 324.6709, "MEAN_ANOMALY": 166.5825, "EPHEMERIS_TYPE": 0, "CLASSIFICATION_TYPE": "U", "NORAD_CAT_ID": 30657, "ELEMENT_SET_NO": 999, "REV_AT_EPOCH": 97319, "BSTAR": 0.0016163942, "MEAN_MOTION_DOT": 4.919e-05, "MEAN_MOTION_DDOT": 0}, "tle": {"line1": "1 30657U 99025APP 25352.76997693  .00004919  00000+0  16164-2 0  9991", "line2": "2 30657  98.8348  90.9752 0016333 324.6709 166.5825 14.38670231973199"}}, "geometry": {"type": "Point", "coordinates": [101.68215030651109, -48.625817665100826]}}, {"type": "Feature", "properties": {"norad_id": 30658, "name": "FENGYUN 1C DEB", "group": "fengyun-1c-debris", "lat": 56.874020724765224, "lon": 11.952434661422945, "alt_km": 1051.1377969424611, "timestamp": "2025-12-19T06:59:44.186413+00:00", "meta": {"OBJECT_NAME": "FENGYUN 1C DEB", "OBJECT_ID": "1999-025APQ", "EPOCH": "2025-12-18T13:23:50.214912", "MEAN_MOTION": 13.87228138, "ECCENTRICITY": 0.01842986, "INCLINATION": 98.4389, "RA_OF_ASC_NODE": 24.4397, "ARG_OF_PERICENTER": 211.7114, "MEAN_ANOMALY": 147.2839, "EPHEMERIS_TYPE": 0, "CLASSIFICATION_TYPE": "U", "NORAD_CAT_ID": 30658, "ELEMENT_SET_NO": 999, "REV_AT_EPOCH": 94765, "BSTAR": 0.001331943, "MEAN_MOTION_DOT": 1.751e-05, "MEAN_MOTION_DDOT": 0}, "tle": {"line1": "1 30658U 99025APQ 25352.55822008  .00001751  00000+0  13319-2 0  9996", "line2": "2 30658  98.4389  24.4397 0184298 211.7114 147.2839 13.87228138947651"}}, "geometry": {"type": "Point", "coordinates": [11.952434661422945, 56.874020724765224]}}, {"type": "Feature", "properties": {"norad_id": 30660, "name": "FENGYUN 1C DEB", "group": "fengyun-1c-debris", "lat": -1.4164339673112996, "lon": 90.12277228036683, "alt_km": 541.21876581576, "timestamp": "2025-12-19T06:59:44.186446+00:00", "meta": {"OBJECT_NAME": "FENGYUN 1C DEB", "OBJECT_ID": "1999-025APS", "EPOCH": "2025-12-18T05:26:39.431328", "MEAN_MOTION": 14.87602273, "ECCENTRICITY": 0.01366618, "INCLINATION": 98.1395, "RA_OF_ASC_NODE": 88.8279, "ARG_OF_PERICENTER": 316.5148, "MEAN_ANOMALY": 102.9858, "EPHEMERIS_TYPE": 0, "CLASSIFICATION_TYPE": "U", "NORAD_CAT_ID": 30660, "ELEMENT_SET_NO": 999, "REV_AT_EPOCH": 866, "BSTAR": 0.00054046224, "MEAN_MOTION_DOT": 5.769e-05, "MEAN_MOTION_DDOT": 0}, "tle": {"line1": "1 30660U 99025APS 25352.22684527  .00005769  00000+0  54046-3 0  9991", "line2": "2 30660  98.1395  88.8279 0136661 316.5148 102.9858 14.87602273  8668"}}, "geometry": {"type": "Point", "coordinates": [90.12277228036683, -1.4164339673112996]}}, {"type": "Feature", "properties": {"norad_id": 30661, "name": "FENGYUN 1C DEB", "group": "fengyun-1c-debris", "lat": -74.8566023282747, "lon": -152.38574307473272, "alt_km": 854.8623639618208, "timestamp": "2025-12-19T06:59:44.186458+00:00", "meta": {"OBJECT_NAME": "FENGYUN 1C DEB", "OBJECT_ID": "1999-025APT", "EPOCH": "2025-12-17T18:11:08.602944", "MEAN_MOTION": 14.21145209, "ECCENTRICITY": 0.01445688, "INCLINATION": 99.4871, "RA_OF_ASC_NODE": 167.8065, "ARG_OF_PERICENTER": 31.5269, "MEAN_ANOMALY": 329.4468, "EPHEMERIS_TYPE": 0, "CLASSIFICATION_TYPE": "U", "NORAD_CAT_ID": 30661, "ELEMENT_SET_NO": 999, "REV_AT_EPOCH": 97973, "BSTAR": 0.00010203451, "MEAN_MOTION_DOT": 1.96e-06, "MEAN_MOTION_DDOT": 0}, "tle": {"line1": "1 30661U 99025APT 25351.75773846  .00000196  00000+0  10203-3 0  9998", "line2": "2 30661  99.4871 167.8065 0144568  31.5269 329.4468 14.21145209979733"}}, "geometry": {"type": "Point", "coordinates": [-152.38574307473272, -74.8566023282747]}}, {"type": "Feature", "properties": {"norad_id": 30662, "name": "FENGYUN 1C DEB", "group": "fengyun-1c-debris", "lat": 0.6547115449804023, "lon": 49.63915492929109, "alt_km": 827.6532568277016, "timestamp": "2025-12-19T06:59:44.186468+00:00", "meta": {"OBJECT_NAME": "FENGYUN 1C DEB", "OBJECT_ID": "1999-025APU", "EPOCH": "2025-12-17T02:47:53.975616", "MEAN_MOTION": 14.2238731, "ECCENTRICITY": 0.00333112, "INCLINATION": 99.053, "RA_OF_ASC_NODE": 47.5109, "ARG_OF_PERICENTER": 258.3821, "MEAN_ANOMALY": 131.5027, "EPHEMERIS_TYPE": 0, "CLASSIFICATION_TYPE": "U", "NORAD_CAT_ID": 30662, "ELEMENT_SET_NO": 999, "REV_AT_EPOCH": 96701, "BSTAR": 0.0012023141, "MEAN_MOTION_DOT": 2.645e-05, "MEAN_MOTION_DDOT": 0}, "tle": {"line1": "1 30662U 99025APU 25351.11659694  .00002645  00000+0  12023-2 0  9995", "line2": "2 30662  99.0530  47.5109 0033311 258.3821 131.5027 14.22387310967014"}}, "geometry": {"type": "Point", "coordinates": [49.63915492929109, 0.6547115449804023]}}]}